CCSDS_OEM_VERS = 1.0
CREATION_DATE  = 2017-05-11T11:12:49
ORIGINATOR     = GMAT USER

META_START
OBJECT_NAME          = MOPSSat_alt_35785_km_RAAN_90_034
OBJECT_ID            = SatId
CENTER_NAME          = Earth
REF_FRAME            = EME2000
TIME_SYSTEM          = UTC
START_TIME           = 2017-01-01T00:00:00.000
USEABLE_START_TIME   = 2017-01-01T00:00:00.000
USEABLE_STOP_TIME    = 2017-01-02T00:00:00.000
STOP_TIME            = 2017-01-02T00:00:00.000
INTERPOLATION        = Lagrange
INTERPOLATION_DEGREE = 7 
META_STOP


                                                                                   

2017-01-01T13:26:40.000   1.595027877946761e+04  -3.902534872569078e+04  -2.768136497545514e+01   2.846418957677476e+00   1.163502470384892e+00  -5.072246554857937e-03
2017-01-01T13:26:50.000   1.597873872388543e+04  -3.901370332247681e+04  -2.773208029189598e+01   2.845569772542514e+00   1.165578109686136e+00  -5.070816461758087e-03
2017-01-01T13:27:00.000   1.600719016894649e+04  -3.900203716594251e+04  -2.778278129408227e+01   2.844719073601465e+00   1.167653129077939e+00  -5.069383681262653e-03
2017-01-01T13:27:10.000   1.603563309962582e+04  -3.899035026224724e+04  -2.783346795534125e+01   2.843866861303447e+00   1.169727527464076e+00  -5.067948214103448e-03
2017-01-01T13:27:20.000   1.606406750086961e+04  -3.897864261757385e+04  -2.788414024894805e+01   2.843013136099286e+00   1.171801303746220e+00  -5.066510061015192e-03
2017-01-01T13:27:30.000   1.609249335756226e+04  -3.896691423814385e+04  -2.793479814806707e+01   2.842157898442631e+00   1.173874456821537e+00  -5.065069222737428e-03
2017-01-01T13:27:40.000   1.612091065461255e+04  -3.895516513018114e+04  -2.798544162590547e+01   2.841301148787308e+00   1.175946985588972e+00  -5.063625700010050e-03
2017-01-01T13:27:50.000   1.614931937658005e+04  -3.894339530006895e+04  -2.803607065504728e+01   2.840442887598760e+00   1.178018888921998e+00  -5.062179493592604e-03
2017-01-01T13:28:00.000   1.617771950812801e+04  -3.893160475416014e+04  -2.808668520826062e+01   2.839583115340213e+00   1.180090165701653e+00  -5.060730604240969e-03
2017-01-01T13:28:10.000   1.620611103385487e+04  -3.891979349884752e+04  -2.813728525819745e+01   2.838721832477813e+00   1.182160814804248e+00  -5.059279032715987e-03
2017-01-01T13:28:20.000   1.623449393894745e+04  -3.890796154029236e+04  -2.818787077855763e+01   2.837859039460823e+00   1.184230835149001e+00  -5.057824779750103e-03
2017-01-01T13:28:30.000   1.626286820852933e+04  -3.889610888469502e+04  -2.823844174292762e+01   2.836994736741353e+00   1.186300225650525e+00  -5.056367846080619e-03
2017-01-01T13:28:40.000   1.629123382780867e+04  -3.888423553823397e+04  -2.828899812504396e+01   2.836128924769921e+00   1.188368985229598e+00  -5.054908232442211e-03
2017-01-01T13:28:50.000   1.631959078170967e+04  -3.887234150721673e+04  -2.833953989813645e+01   2.835261604006453e+00   1.190437112786289e+00  -5.053445939585473e-03
2017-01-01T13:29:00.000   1.634793905514656e+04  -3.886042679796861e+04  -2.839006703541639e+01   2.834392774912177e+00   1.192504607219936e+00  -5.051980968263254e-03
2017-01-01T13:29:10.000   1.637627863302309e+04  -3.884849141683158e+04  -2.844057951007573e+01   2.833522437949535e+00   1.194571467429117e+00  -5.050513319230498e-03
2017-01-01T13:29:20.000   1.640460949996120e+04  -3.883653537028174e+04  -2.849107729480341e+01   2.832650593590754e+00   1.196637692291858e+00  -5.049042993258717e-03
2017-01-01T13:29:30.000   1.643293164066699e+04  -3.882455866477222e+04  -2.854156036243765e+01   2.831777242306380e+00   1.198703280692318e+00  -5.047569991116645e-03
2017-01-01T13:29:40.000   1.646124503978642e+04  -3.881256130679460e+04  -2.859202868570880e+01   2.830902384569773e+00   1.200768231510275e+00  -5.046094313577817e-03
2017-01-01T13:29:50.000   1.648954968254433e+04  -3.880054330260852e+04  -2.864248223837824e+01   2.830026020837369e+00   1.202832543667721e+00  -5.044615961387289e-03
2017-01-01T13:30:00.000   1.651784555410527e+04  -3.878850465851184e+04  -2.869292099409940e+01   2.829148151568404e+00   1.204896216082255e+00  -5.043134935294888e-03
2017-01-01T13:30:10.000   1.654613263971830e+04  -3.877644538078003e+04  -2.874334492667548e+01   2.828268777220475e+00   1.206959247677638e+00  -5.041651236047749e-03
2017-01-01T13:30:20.000   1.657441092434935e+04  -3.876436547581945e+04  -2.879375400940444e+01   2.827387898260729e+00   1.209021637356979e+00  -5.040164864409149e-03
2017-01-01T13:30:30.000   1.660268039295445e+04  -3.875226495005434e+04  -2.884414821556585e+01   2.826505515157612e+00   1.211083384022671e+00  -5.038675821144623e-03
2017-01-01T13:30:40.000   1.663094103047930e+04  -3.874014380992566e+04  -2.889452751842022e+01   2.825621628380796e+00   1.213144486576348e+00  -5.037184107021823e-03
2017-01-01T13:30:50.000   1.665919282158870e+04  -3.872800206201038e+04  -2.894489189072649e+01   2.824736238409868e+00   1.215204943899159e+00  -5.035689722825216e-03
2017-01-01T13:31:00.000   1.668743575103140e+04  -3.871583971286188e+04  -2.899524130539265e+01   2.823849345722697e+00   1.217264754878378e+00  -5.034192669336411e-03
2017-01-01T13:31:10.000   1.671566980349359e+04  -3.870365676907366e+04  -2.904557573521439e+01   2.822960950800081e+00   1.219323918396715e+00  -5.032692947342025e-03
2017-01-01T13:31:20.000   1.674389496424666e+04  -3.869145323699993e+04  -2.909589515402998e+01   2.822071054105366e+00   1.221382433379557e+00  -5.031190557599270e-03
2017-01-01T13:31:30.000   1.677211121849766e+04  -3.867922912303544e+04  -2.914619953556228e+01   2.821179656104859e+00   1.223440298747602e+00  -5.029685500870422e-03
2017-01-01T13:31:40.000   1.680031855155709e+04  -3.866698443354361e+04  -2.919648885371793e+01   2.820286757262580e+00   1.225497513429093e+00  -5.028177777913942e-03
2017-01-01T13:31:50.000   1.682851694838754e+04  -3.865471917504957e+04  -2.924676308178262e+01   2.819392358054341e+00   1.227554076326895e+00  -5.026667389508249e-03
2017-01-01T13:32:00.000   1.685670639397627e+04  -3.864243335408117e+04  -2.929702219308536e+01   2.818496458956158e+00   1.229609986345677e+00  -5.025154336432153e-03
2017-01-01T13:32:10.000   1.688488687325208e+04  -3.863012697720434e+04  -2.934726616085019e+01   2.817599060446820e+00   1.231665242385843e+00  -5.023638619469213e-03
2017-01-01T13:32:20.000   1.691305837110848e+04  -3.861780005101481e+04  -2.939749495823754e+01   2.816700163007296e+00   1.233719843345223e+00  -5.022120239406741e-03
2017-01-01T13:32:30.000   1.694122087243123e+04  -3.860545258212467e+04  -2.944770855839332e+01   2.815799767119742e+00   1.235773788121081e+00  -5.020599197034105e-03
2017-01-01T13:32:40.000   1.696937436210861e+04  -3.859308457715797e+04  -2.949790693446713e+01   2.814897873267193e+00   1.237827075610863e+00  -5.019075493142218e-03
2017-01-01T13:32:50.000   1.699751882513230e+04  -3.858069604270721e+04  -2.954809005979239e+01   2.813994481930383e+00   1.239879704719563e+00  -5.017549128518151e-03
2017-01-01T13:33:00.000   1.702565424653003e+04  -3.856828698536202e+04  -2.959825790776596e+01   2.813089593589833e+00   1.241931674354798e+00  -5.016020103948679e-03
2017-01-01T13:33:10.000   1.705378061136557e+04  -3.855585741170929e+04  -2.964841045184828e+01   2.812183208725869e+00   1.243982983426815e+00  -5.014488420220292e-03
2017-01-01T13:33:20.000   1.708189790480552e+04  -3.854340732830272e+04  -2.969854766568249e+01   2.811275327816397e+00   1.246033630853359e+00  -5.012954078115465e-03
2017-01-01T13:33:30.000   1.711000611201888e+04  -3.853093674170789e+04  -2.974866952291537e+01   2.810365951340195e+00   1.248083615552356e+00  -5.011417078418190e-03
2017-01-01T13:33:40.000   1.713810521816715e+04  -3.851844565850694e+04  -2.979877599717950e+01   2.809455079777240e+00   1.250132936441178e+00  -5.009877421914553e-03
2017-01-01T13:33:50.000   1.716619520837563e+04  -3.850593408530968e+04  -2.984886706204237e+01   2.808542713609534e+00   1.252181592434561e+00  -5.008335109394089e-03
2017-01-01T13:34:00.000   1.719427606771178e+04  -3.849340202876514e+04  -2.989894269096754e+01   2.807628853321941e+00   1.254229582443020e+00  -5.006790141651236e-03
2017-01-01T13:34:10.000   1.722234778126746e+04  -3.848084949552407e+04  -2.994900285746141e+01   2.806713499399448e+00   1.256276905378853e+00  -5.005242519480687e-03
2017-01-01T13:34:20.000   1.725041033378997e+04  -3.846827649240639e+04  -2.999904753441518e+01   2.805796652339381e+00   1.258323560129226e+00  -5.003692243698077e-03
2017-01-01T13:34:30.000   1.727846371012942e+04  -3.845568302619876e+04  -3.004907669490267e+01   2.804878312636638e+00   1.260369545588805e+00  -5.002139315114991e-03
2017-01-01T13:34:40.000   1.730650789507226e+04  -3.844306910372953e+04  -3.009909031188349e+01   2.803958480789166e+00   1.262414860647610e+00  -5.000583734548217e-03
2017-01-01T13:34:50.000   1.733454287398648e+04  -3.843043473157898e+04  -3.014908835935364e+01   2.803037157276814e+00   1.264459504238078e+00  -4.999025502783994e-03
2017-01-01T13:35:00.000   1.736256863217802e+04  -3.841777991636817e+04  -3.019907081119772e+01   2.802114342582414e+00   1.266503475288116e+00  -4.997464620613649e-03
2017-01-01T13:35:10.000   1.739058515503669e+04  -3.840510466469394e+04  -3.024903764144927e+01   2.801190037187024e+00   1.268546772731752e+00  -4.995901088825572e-03
2017-01-01T13:35:20.000   1.741859242767217e+04  -3.839240898329017e+04  -3.029898882364151e+01   2.800264241581704e+00   1.270589395482581e+00  -4.994334908225118e-03
2017-01-01T13:35:30.000   1.744659043518461e+04  -3.837969287890878e+04  -3.034892433129006e+01   2.799336956258828e+00   1.272631342453506e+00  -4.992766079619927e-03
2017-01-01T13:35:40.000   1.747457916266423e+04  -3.836695635831869e+04  -3.039884413789203e+01   2.798408181712010e+00   1.274672612556701e+00  -4.991194603819788e-03
